<?xml version="1.0" encoding="UTF-8"?>
<ndm xmlns:xsi="http://www.w3.org/2001/XMLSchema-instance" xsi:noNamespaceSchemaLocation="https://sanaregistry.org/r/ndmxml_unqualified/ndmxml-2.0.0-master-2.0.xsd">
<omm id="CCSDS_OMM_VERS" version="2.0">
<header><CREATION_DATE/><ORIGINATOR/></header><body><segment><metadata><OBJECT_NAME>ORBCOMM FM103 [+]</OBJECT_NAME><OBJECT_ID>2014-040F</OBJECT_ID><CENTER_NAME>EARTH</CENTER_NAME><REF_FRAME>TEME</REF_FRAME><TIME_SYSTEM>UTC</TIME_SYSTEM><MEAN_ELEMENT_THEORY>SGP4</MEAN_ELEMENT_THEORY></metadata><data><meanElements><EPOCH>2023-10-13T23:06:28.924992</EPOCH><MEAN_MOTION>14.55970611</MEAN_MOTION><ECCENTRICITY>.0002021</ECCENTRICITY><INCLINATION>47.0071</INCLINATION><RA_OF_ASC_NODE>23.7726</RA_OF_ASC_NODE><ARG_OF_PERICENTER>326.4932</ARG_OF_PERICENTER><MEAN_ANOMALY>33.5825</MEAN_ANOMALY></meanElements><tleParameters><EPHEMERIS_TYPE>0</EPHEMERIS_TYPE><CLASSIFICATION_TYPE>U</CLASSIFICATION_TYPE><NORAD_CAT_ID>40091</NORAD_CAT_ID><ELEMENT_SET_NO>999</ELEMENT_SET_NO><REV_AT_EPOCH>49188</REV_AT_EPOCH><BSTAR>.49844E-3</BSTAR><MEAN_MOTION_DOT>.2046E-4</MEAN_MOTION_DOT><MEAN_MOTION_DDOT>0</MEAN_MOTION_DDOT></tleParameters></data></segment></body></omm>
<omm id="CCSDS_OMM_VERS" version="2.0">
<header><CREATION_DATE/><ORIGINATOR/></header><body><segment><metadata><OBJECT_NAME>ORBCOMM FM114 [+]</OBJECT_NAME><OBJECT_ID>2015-081A</OBJECT_ID><CENTER_NAME>EARTH</CENTER_NAME><REF_FRAME>TEME</REF_FRAME><TIME_SYSTEM>UTC</TIME_SYSTEM><MEAN_ELEMENT_THEORY>SGP4</MEAN_ELEMENT_THEORY></metadata><data><meanElements><EPOCH>2023-10-13T17:22:09.757056</EPOCH><MEAN_MOTION>14.55977818</MEAN_MOTION><ECCENTRICITY>.0001316</ECCENTRICITY><INCLINATION>47.0029</INCLINATION><RA_OF_ASC_NODE>294.2566</RA_OF_ASC_NODE><ARG_OF_PERICENTER>14.7193</ARG_OF_PERICENTER><MEAN_ANOMALY>345.3729</MEAN_ANOMALY></meanElements><tleParameters><EPHEMERIS_TYPE>0</EPHEMERIS_TYPE><CLASSIFICATION_TYPE>U</CLASSIFICATION_TYPE><NORAD_CAT_ID>41179</NORAD_CAT_ID><ELEMENT_SET_NO>999</ELEMENT_SET_NO><REV_AT_EPOCH>41515</REV_AT_EPOCH><BSTAR>.41208E-3</BSTAR><MEAN_MOTION_DOT>.1663E-4</MEAN_MOTION_DOT><MEAN_MOTION_DDOT>0</MEAN_MOTION_DDOT></tleParameters></data></segment></body></omm>
<omm id="CCSDS_OMM_VERS" version="2.0">
<header><CREATION_DATE/><ORIGINATOR/></header><body><segment><metadata><OBJECT_NAME>ORBCOMM FM119 [-]</OBJECT_NAME><OBJECT_ID>2015-081B</OBJECT_ID><CENTER_NAME>EARTH</CENTER_NAME><REF_FRAME>TEME</REF_FRAME><TIME_SYSTEM>UTC</TIME_SYSTEM><MEAN_ELEMENT_THEORY>SGP4</MEAN_ELEMENT_THEORY></metadata><data><meanElements><EPOCH>2023-10-14T04:06:39.764448</EPOCH><MEAN_MOTION>14.55966780</MEAN_MOTION><ECCENTRICITY>.0000839</ECCENTRICITY><INCLINATION>46.9999</INCLINATION><RA_OF_ASC_NODE>201.3426</RA_OF_ASC_NODE><ARG_OF_PERICENTER>143.1247</ARG_OF_PERICENTER><MEAN_ANOMALY>216.9695</MEAN_ANOMALY></meanElements><tleParameters><EPHEMERIS_TYPE>0</EPHEMERIS_TYPE><CLASSIFICATION_TYPE>U</CLASSIFICATION_TYPE><NORAD_CAT_ID>41180</NORAD_CAT_ID><ELEMENT_SET_NO>999</ELEMENT_SET_NO><REV_AT_EPOCH>41647</REV_AT_EPOCH><BSTAR>.46892E-3</BSTAR><MEAN_MOTION_DOT>.1915E-4</MEAN_MOTION_DOT><MEAN_MOTION_DDOT>0</MEAN_MOTION_DDOT></tleParameters></data></segment></body></omm>
<omm id="CCSDS_OMM_VERS" version="2.0">
<header><CREATION_DATE/><ORIGINATOR/></header><body><segment><metadata><OBJECT_NAME>ORBCOMM FM105 [-]</OBJECT_NAME><OBJECT_ID>2015-081C</OBJECT_ID><CENTER_NAME>EARTH</CENTER_NAME><REF_FRAME>TEME</REF_FRAME><TIME_SYSTEM>UTC</TIME_SYSTEM><MEAN_ELEMENT_THEORY>SGP4</MEAN_ELEMENT_THEORY></metadata><data><meanElements><EPOCH>2023-10-14T01:26:28.588704</EPOCH><MEAN_MOTION>14.44053560</MEAN_MOTION><ECCENTRICITY>.0001358</ECCENTRICITY><INCLINATION>47.0008</INCLINATION><RA_OF_ASC_NODE>149.8596</RA_OF_ASC_NODE><ARG_OF_PERICENTER>98.1580</ARG_OF_PERICENTER><MEAN_ANOMALY>261.9454</MEAN_ANOMALY></meanElements><tleParameters><EPHEMERIS_TYPE>0</EPHEMERIS_TYPE><CLASSIFICATION_TYPE>U</CLASSIFICATION_TYPE><NORAD_CAT_ID>41181</NORAD_CAT_ID><ELEMENT_SET_NO>999</ELEMENT_SET_NO><REV_AT_EPOCH>41235</REV_AT_EPOCH><BSTAR>.28234E-3</BSTAR><MEAN_MOTION_DOT>.817E-5</MEAN_MOTION_DOT><MEAN_MOTION_DDOT>0</MEAN_MOTION_DDOT></tleParameters></data></segment></body></omm>
<omm id="CCSDS_OMM_VERS" version="2.0">
<header><CREATION_DATE/><ORIGINATOR/></header><body><segment><metadata><OBJECT_NAME>ORBCOMM FM110 [+]</OBJECT_NAME><OBJECT_ID>2015-081D</OBJECT_ID><CENTER_NAME>EARTH</CENTER_NAME><REF_FRAME>TEME</REF_FRAME><TIME_SYSTEM>UTC</TIME_SYSTEM><MEAN_ELEMENT_THEORY>SGP4</MEAN_ELEMENT_THEORY></metadata><data><meanElements><EPOCH>2023-10-14T01:03:08.374752</EPOCH><MEAN_MOTION>14.55980798</MEAN_MOTION><ECCENTRICITY>.0002749</ECCENTRICITY><INCLINATION>47.0019</INCLINATION><RA_OF_ASC_NODE>292.1765</RA_OF_ASC_NODE><ARG_OF_PERICENTER>263.3086</ARG_OF_PERICENTER><MEAN_ANOMALY>96.7486</MEAN_ANOMALY></meanElements><tleParameters><EPHEMERIS_TYPE>0</EPHEMERIS_TYPE><CLASSIFICATION_TYPE>U</CLASSIFICATION_TYPE><NORAD_CAT_ID>41182</NORAD_CAT_ID><ELEMENT_SET_NO>999</ELEMENT_SET_NO><REV_AT_EPOCH>41525</REV_AT_EPOCH><BSTAR>.4921E-3</BSTAR><MEAN_MOTION_DOT>.2019E-4</MEAN_MOTION_DOT><MEAN_MOTION_DDOT>0</MEAN_MOTION_DDOT></tleParameters></data></segment></body></omm>
<omm id="CCSDS_OMM_VERS" version="2.0">
<header><CREATION_DATE/><ORIGINATOR/></header><body><segment><metadata><OBJECT_NAME>ORBCOMM FM118 [+]</OBJECT_NAME><OBJECT_ID>2015-081E</OBJECT_ID><CENTER_NAME>EARTH</CENTER_NAME><REF_FRAME>TEME</REF_FRAME><TIME_SYSTEM>UTC</TIME_SYSTEM><MEAN_ELEMENT_THEORY>SGP4</MEAN_ELEMENT_THEORY></metadata><data><meanElements><EPOCH>2023-10-14T07:05:41.389152</EPOCH><MEAN_MOTION>14.55985401</MEAN_MOTION><ECCENTRICITY>.0002948</ECCENTRICITY><INCLINATION>47.0031</INCLINATION><RA_OF_ASC_NODE>291.2557</RA_OF_ASC_NODE><ARG_OF_PERICENTER>260.3902</ARG_OF_PERICENTER><MEAN_ANOMALY>99.6650</MEAN_ANOMALY></meanElements><tleParameters><EPHEMERIS_TYPE>0</EPHEMERIS_TYPE><CLASSIFICATION_TYPE>U</CLASSIFICATION_TYPE><NORAD_CAT_ID>41183</NORAD_CAT_ID><ELEMENT_SET_NO>999</ELEMENT_SET_NO><REV_AT_EPOCH>41529</REV_AT_EPOCH><BSTAR>.47641E-3</BSTAR><MEAN_MOTION_DOT>.1949E-4</MEAN_MOTION_DOT><MEAN_MOTION_DDOT>0</MEAN_MOTION_DDOT></tleParameters></data></segment></body></omm>
<omm id="CCSDS_OMM_VERS" version="2.0">
<header><CREATION_DATE/><ORIGINATOR/></header><body><segment><metadata><OBJECT_NAME>ORBCOMM FM112 [+]</OBJECT_NAME><OBJECT_ID>2015-081F</OBJECT_ID><CENTER_NAME>EARTH</CENTER_NAME><REF_FRAME>TEME</REF_FRAME><TIME_SYSTEM>UTC</TIME_SYSTEM><MEAN_ELEMENT_THEORY>SGP4</MEAN_ELEMENT_THEORY></metadata><data><meanElements><EPOCH>2023-10-13T20:59:56.828256</EPOCH><MEAN_MOTION>14.55989860</MEAN_MOTION><ECCENTRICITY>.0000841</ECCENTRICITY><INCLINATION>46.9980</INCLINATION><RA_OF_ASC_NODE>201.9963</RA_OF_ASC_NODE><ARG_OF_PERICENTER>87.7925</ARG_OF_PERICENTER><MEAN_ANOMALY>272.3056</MEAN_ANOMALY></meanElements><tleParameters><EPHEMERIS_TYPE>0</EPHEMERIS_TYPE><CLASSIFICATION_TYPE>U</CLASSIFICATION_TYPE><NORAD_CAT_ID>41184</NORAD_CAT_ID><ELEMENT_SET_NO>999</ELEMENT_SET_NO><REV_AT_EPOCH>41637</REV_AT_EPOCH><BSTAR>.68761E-3</BSTAR><MEAN_MOTION_DOT>.2888E-4</MEAN_MOTION_DOT><MEAN_MOTION_DDOT>0</MEAN_MOTION_DDOT></tleParameters></data></segment></body></omm>
<omm id="CCSDS_OMM_VERS" version="2.0">
<header><CREATION_DATE/><ORIGINATOR/></header><body><segment><metadata><OBJECT_NAME>ORBCOMM FM113 [+]</OBJECT_NAME><OBJECT_ID>2015-081G</OBJECT_ID><CENTER_NAME>EARTH</CENTER_NAME><REF_FRAME>TEME</REF_FRAME><TIME_SYSTEM>UTC</TIME_SYSTEM><MEAN_ELEMENT_THEORY>SGP4</MEAN_ELEMENT_THEORY></metadata><data><meanElements><EPOCH>2023-10-13T20:25:30.549792</EPOCH><MEAN_MOTION>14.55977710</MEAN_MOTION><ECCENTRICITY>.0000478</ECCENTRICITY><INCLINATION>47.0000</INCLINATION><RA_OF_ASC_NODE>202.3281</RA_OF_ASC_NODE><ARG_OF_PERICENTER>126.3518</ARG_OF_PERICENTER><MEAN_ANOMALY>233.7411</MEAN_ANOMALY></meanElements><tleParameters><EPHEMERIS_TYPE>0</EPHEMERIS_TYPE><CLASSIFICATION_TYPE>U</CLASSIFICATION_TYPE><NORAD_CAT_ID>41185</NORAD_CAT_ID><ELEMENT_SET_NO>999</ELEMENT_SET_NO><REV_AT_EPOCH>41642</REV_AT_EPOCH><BSTAR>.62813E-3</BSTAR><MEAN_MOTION_DOT>.2623E-4</MEAN_MOTION_DOT><MEAN_MOTION_DDOT>0</MEAN_MOTION_DDOT></tleParameters></data></segment></body></omm>

</ndm>
