ORBCOMM FM103 [+]       
1 40091U 14040F   23286.96283478  .00002046  00000+0  49844-3 0  9994
2 40091  47.0071  23.7726 0002021 326.4932  33.5825 14.55970611491881
ORBCOMM FM114 [+]       
1 41179U 15081A   23286.72372404  .00001663  00000+0  41208-3 0  9990
2 41179  47.0029 294.2566 0001316  14.7193 345.3729 14.55977818415150
ORBCOMM FM119 [-]       
1 41180U 15081B   23287.17129357  .00001915  00000+0  46892-3 0  9993
2 41180  46.9999 201.3426 0000839 143.1247 216.9695 14.55966780416473
ORBCOMM FM105 [-]       
1 41181U 15081C   23287.06005311  .00000817  00000+0  28234-3 0  9995
2 41181  47.0008 149.8596 0001358  98.1580 261.9454 14.44053560412354
ORBCOMM FM110 [+]       
1 41182U 15081D   23287.04384693  .00002019  00000+0  49210-3 0  9990
2 41182  47.0019 292.1765 0002749 263.3086  96.7486 14.55980798415254
ORBCOMM FM118 [+]       
1 41183U 15081E   23287.29561793  .00001949  00000+0  47641-3 0  9993
2 41183  47.0031 291.2557 0002948 260.3902  99.6650 14.55985401415298
ORBCOMM FM112 [+]       
1 41184U 15081F   23286.87496329  .00002888  00000+0  68761-3 0  9998
2 41184  46.9980 201.9963 0000841  87.7925 272.3056 14.55989860416378
ORBCOMM FM113 [+]       
1 41185U 15081G   23286.85104803  .00002623  00000+0  62813-3 0  9999
2 41185  47.0000 202.3281 0000478 126.3518 233.7411 14.55977710416429
